XRISM                   
1 57800U 23137A   24266.85683404  .00007350  00000+0  52824-3 0  9992
2 57800  31.0020 110.2049 0009208  92.9146 267.2544 15.02895441 57309
